 Automated mail xmit by MAIL_REQUEST, PID=   7160 Sat Oct 11 04:53:20 2014
++++++++++++++++++++++++++++++++ (part 1 of 1)  
++++++++++++++++++++++++++++++++ +++++++++++++++++++++++++++++++

*******************************************************************************
 Revised: Mar 27, 2009             Nereid / (Neptune)                       802

            http://ssd.jpl.nasa.gov/sat_props.html  (physical properties)
            http://ssd.jpl.nasa.gov/sat_elem.html   (mean elements)

 SATELLITE PHYSICAL PROPERTIES:
  Radius (km)             =  170   +- 2.5   Density (g cm^-3)   =              
  Mass (10^20 kg )        =                 Geometric Albedo    =  0.2  
                                            V(1,0)              = +4.0 

 SATELLITE ORBITAL DATA:
  Semi-major axis, a (km) = 5513.4(10^3)    Orbital period      = 360.13619 d
  Eccentricity, e         = 0.7512          Rotational period   = 
  Inclination, i  (deg)   = 7.23            Local invar ref. pln= Sun   
  
 Fit to all reported measurements through 2008, as described in AJ (2009).
*******************************************************************************
 
 
*******************************************************************************
Ephemeris / MAIL_REQUEST Sat Oct 11 04:53:20 2014 Pasadena, USA  / Horizons    
*******************************************************************************
Target body name: Nereid (802)                    {source: NEP081}
Center body name: Sun (10)                        {source: DE-0431LE-0431}
Center-site name: BODY CENTER
*******************************************************************************
Start time      : A.D. 2014-Sep-01 10:00:00.0000 CT 
Stop  time      : A.D. 2014-Oct-01 10:00:00.0000 CT 
Step-size       : 2 steps
*******************************************************************************
Center geodetic : 0.00000000,0.00000000,0.0000000 {E-lon(deg),Lat(deg),Alt(km)} Center cylindric: 0.00000000,0.00000000,0.0000000 {E-lon(deg),Dxy(km),Dz(km)}
Center radii    : 696000.0 x 696000.0 x 696000.0 k{Equator, meridian, pole}    
Output units    : AU-D                                                         
Output format   : 03
Reference frame : ICRF/J2000.0                                                 
Output type     : GEOMETRIC cartesian states
Coordinate systm: Ecliptic and Mean Equinox of Reference Epoch                 
*******************************************************************************
JDCT ,   , X, Y, Z, VX, VY, VZ, LT, RG, RR,
*******************************************************************************
$$SOE
2456901.916666667, A.D. 2014-Sep-01 10:00:00.0000,  2.739392833707715E+01, -1.213250635955719E+01, -3.745774575051926E-01,  1.021312482797672E-03,  2.971191910247896E-03, -9.550829283273122E-05,  1.730503098216444E-01,  2.996273232823210E+01, -2.681487269422147E-04, 2456916.916666667, A.D. 2014-Sep-16 10:00:00.0000,  2.740911214795262E+01, -1.208832495184367E+01, -3.760424866487283E-01,  1.003711605721735E-03,  2.919549151903266E-03, -9.980682540565200E-05,  1.730274770765431E-01,  2.995877896096860E+01, -2.584912856073634E-04, 2456931.916666667, A.D. 2014-Oct-01 10:00:00.0000,  2.742405476425344E+01, -1.204492545684919E+01, -3.775711677807411E-01,  9.891339442347719E-04,  2.866789059556030E-03, -1.040062226653164E-04,  1.730056076545088E-01,  2.995499238792366E+01, -2.458664392452906E-04, $$EOE
*******************************************************************************
Coordinate system description:

  Ecliptic and Mean Equinox of Reference Epoch

    Reference epoch: J2000.0
    xy-plane: plane of the Earth's orbit at the reference epoch
    x-axis  : out along ascending node of instantaneous plane of the Earth's
              orbit and the Earth's mean equator at the reference epoch
    z-axis  : perpendicular to the xy-plane in the directional (+ or -) sense
              of Earth's north pole at the reference epoch.

Symbol meaning [1 au=149597870.700 km, 1 day=86400.0 s]:

    JDCT     Epoch Julian Date, Coordinate Time
      X      x-component of position vector (AU)                               
      Y      y-component of position vector (AU)                               
      Z      z-component of position vector (AU)                               
      VX     x-component of velocity vector (AU/day)                           
      VY     y-component of velocity vector (AU/day)                           
      VZ     z-component of velocity vector (AU/day)                           
      LT     One-way down-leg Newtonian light-time (day)                       
      RG     Range; distance from coordinate center (AU)                       
      RR     Range-rate; radial velocity wrt coord. center (AU/day)            

Geometric states/elements have no aberration corrections applied.

 Computations by ...
     Solar System Dynamics Group, Horizons On-Line Ephemeris System
     4800 Oak Grove Drive, Jet Propulsion Laboratory
     Pasadena, CA  91109   USA
     Information: http://ssd.jpl.nasa.gov/
     Connect    : telnet://ssd.jpl.nasa.gov:6775  (via browser)
                  telnet ssd.jpl.nasa.gov 6775    (via command-line)
     Author     : Jon.Giorgini@jpl.nasa.gov
*******************************************************************************
